start=new Date('2022-12-01T00:00:00.000Z').valueOf();
sats=[{"OBJECT_NAME":"STARLINK-4040","COUNTRY_CODE":"US","OBJECT_ID":"2022-083V","INCLINATION":"53.2172","REV_AT_EPOCH":"2097","PERIOD":"95.437","RA_OF_ASC_NODE":"128.0456","CENTER_NAME":"EARTH","TIME_SYSTEM":"UTC","MEAN_ANOMALY":"308.1122","MEAN_MOTION_DDOT":"0.0000000000000","SEMIMAJOR_AXIS":"6917.873","APOAPSIS":"541.378","EPOCH":"2022-11-30T19:54:54.575712","CLASSIFICATION_TYPE":"U","NORAD_CAT_ID":"53151","ELEMENT_SET_NO":"999","OBJECT_TYPE":"PAYLOAD","REF_FRAME":"TEME","PERIAPSIS":"538.098","MEAN_MOTION":"15.08842451","GP_ID":"219217863","TLE_LINE1":"1 53151U 22083V   22334.82979833  .00002104  00000-0  15028-3 0  9999","FILE":"3676429","RCS_SIZE":"LARGE","MEAN_ELEMENT_THEORY":"SGP4","EPHEMERIS_TYPE":"0","MEAN_MOTION_DOT":"0.00002104","BSTAR":"0.00015028000000","ARG_OF_PERICENTER":"52.0084","TLE_LINE2":"2 53151  53.2172 128.0456 0002371  52.0084 308.1122 15.08842451 20978","ECCENTRICITY":"0.00023710","SITE":"AFETR","DECAY_DATE":null,"LAUNCH_DATE":"2022-07-17"},{"COUNTRY_CODE":"US","OBJECT_ID":"2022-083W","INCLINATION":"53.2169","OBJECT_NAME":"STARLINK-4045","MEAN_ANOMALY":"304.3396","REV_AT_EPOCH":"2095","PERIOD":"95.437","TIME_SYSTEM":"UTC","RA_OF_ASC_NODE":"128.6067","CENTER_NAME":"EARTH","EPOCH":"2022-11-30T16:54:43.769664","APOAPSIS":"541.389","SEMIMAJOR_AXIS":"6917.852","MEAN_MOTION_DDOT":"0.0000000000000","REF_FRAME":"TEME","OBJECT_TYPE":"PAYLOAD","NORAD_CAT_ID":"53152","ELEMENT_SET_NO":"999","CLASSIFICATION_TYPE":"U","MEAN_MOTION":"15.08849413","PERIAPSIS":"538.044","RCS_SIZE":"LARGE","FILE":"3676429","TLE_LINE1":"1 53152U 22083W   22334.70467326  .00001469  00000-0  11037-3 0  9995","GP_ID":"219218395","TLE_LINE2":"2 53152  53.2169 128.6067 0002418  55.7825 304.3396 15.08849413 20958","ARG_OF_PERICENTER":"55.7825","MEAN_MOTION_DOT":"0.00001469","BSTAR":"0.00011037000000","EPHEMERIS_TYPE":"0","MEAN_ELEMENT_THEORY":"SGP4","LAUNCH_DATE":"2022-07-17","DECAY_DATE":null,"SITE":"AFETR","ECCENTRICITY":"0.00024180"},{"MEAN_ELEMENT_THEORY":"SGP4","EPHEMERIS_TYPE":"0","BSTAR":"0.00003434700000","MEAN_MOTION_DOT":"0.00000259","ARG_OF_PERICENTER":"51.5452","TLE_LINE2":"2 53153  53.2170 128.0615 0001842  51.5452 308.5705 15.08842372 20973","ECCENTRICITY":"0.00018420","SITE":"AFETR","DECAY_DATE":null,"LAUNCH_DATE":"2022-07-17","PERIAPSIS":"538.464","MEAN_MOTION":"15.08842372","TLE_LINE1":"1 53153U 22083X   22334.82611981  .00000259  00000-0  34347-4 0  9993","GP_ID":"219218904","FILE":"3676429","RCS_SIZE":"LARGE","SEMIMAJOR_AXIS":"6917.873","MEAN_MOTION_DDOT":"0.0000000000000","APOAPSIS":"541.012","EPOCH":"2022-11-30T19:49:36.751584","CLASSIFICATION_TYPE":"U","ELEMENT_SET_NO":"999","NORAD_CAT_ID":"53153","OBJECT_TYPE":"PAYLOAD","REF_FRAME":"TEME","OBJECT_NAME":"STARLINK-4098","OBJECT_ID":"2022-083X","COUNTRY_CODE":"US","INCLINATION":"53.2170","PERIOD":"95.437","REV_AT_EPOCH":"2097","RA_OF_ASC_NODE":"128.0615","CENTER_NAME":"EARTH","TIME_SYSTEM":"UTC","MEAN_ANOMALY":"308.5705"},{"CLASSIFICATION_TYPE":"U","REF_FRAME":"TEME","OBJECT_TYPE":"PAYLOAD","ELEMENT_SET_NO":"999","NORAD_CAT_ID":"53154","APOAPSIS":"541.072","SEMIMAJOR_AXIS":"6917.881","MEAN_MOTION_DDOT":"0.0000000000000","EPOCH":"2022-11-30T16:49:26.310144","RA_OF_ASC_NODE":"128.6249","TIME_SYSTEM":"UTC","CENTER_NAME":"EARTH","REV_AT_EPOCH":"2095","PERIOD":"95.438","MEAN_ANOMALY":"305.9081","OBJECT_NAME":"STARLINK-4077","INCLINATION":"53.2176","OBJECT_ID":"2022-083Y","COUNTRY_CODE":"US","SITE":"AFETR","ECCENTRICITY":"0.00019160","LAUNCH_DATE":"2022-07-17","DECAY_DATE":null,"EPHEMERIS_TYPE":"0","MEAN_ELEMENT_THEORY":"SGP4","TLE_LINE2":"2 53154  53.2176 128.6249 0001916  54.2089 305.9081 15.08839699 20951","MEAN_MOTION_DOT":"0.00000447","BSTAR":"0.00004618700000","ARG_OF_PERICENTER":"54.2089","GP_ID":"219219066","TLE_LINE1":"1 53154U 22083Y   22334.70099896  .00000447  00000-0  46187-4 0  9990","RCS_SIZE":"LARGE","FILE":"3676429","PERIAPSIS":"538.421","MEAN_MOTION":"15.08839699"},{"OBJECT_NAME":"STARLINK-4088","COUNTRY_CODE":"US","OBJECT_ID":"2022-083Z","INCLINATION":"53.2177","REV_AT_EPOCH":"2161","PERIOD":"95.437","RA_OF_ASC_NODE":"128.0945","TIME_SYSTEM":"UTC","CENTER_NAME":"EARTH","MEAN_ANOMALY":"300.7625","SEMIMAJOR_AXIS":"6917.870","MEAN_MOTION_DDOT":"0.0000000000000","APOAPSIS":"540.980","EPOCH":"2022-11-30T19:39:00.688608","CLASSIFICATION_TYPE":"U","NORAD_CAT_ID":"53155","ELEMENT_SET_NO":"999","OBJECT_TYPE":"PAYLOAD","REF_FRAME":"TEME","PERIAPSIS":"538.491","MEAN_MOTION":"15.08843339","TLE_LINE1":"1 53155U 22083Z   22334.81875797  .00002197  00000-0  15607-3 0  9991","GP_ID":"219218223","RCS_SIZE":"LARGE","FILE":"3676429","MEAN_ELEMENT_THEORY":"SGP4","EPHEMERIS_TYPE":"0","MEAN_MOTION_DOT":"0.00002197","BSTAR":"0.00015607000000","ARG_OF_PERICENTER":"59.3545","TLE_LINE2":"2 53155  53.2177 128.0945 0001799  59.3545 300.7625 15.08843339 21619","ECCENTRICITY":"0.00017990","SITE":"AFETR","DECAY_DATE":null,"LAUNCH_DATE":"2022-07-17"},{"ECCENTRICITY":"0.00020520","SITE":"AFETR","DECAY_DATE":null,"LAUNCH_DATE":"2022-07-17","MEAN_ELEMENT_THEORY":"SGP4","EPHEMERIS_TYPE":"0","MEAN_MOTION_DOT":"0.00000057","BSTAR":"0.00002166500000","ARG_OF_PERICENTER":"60.6240","TLE_LINE2":"2 53156  53.2176 128.9832 0002052  60.6240 299.4957 15.08839165 20942","GP_ID":"219218037","TLE_LINE1":"1 53156U 22083AA  22334.62100184  .00000057  00000-0  21665-4 0  9997","FILE":"3676429","RCS_SIZE":"LARGE","PERIAPSIS":"538.328","MEAN_MOTION":"15.08839165","CLASSIFICATION_TYPE":"U","ELEMENT_SET_NO":"999","NORAD_CAT_ID":"53156","OBJECT_TYPE":"PAYLOAD","REF_FRAME":"TEME","SEMIMAJOR_AXIS":"6917.883","MEAN_MOTION_DDOT":"0.0000000000000","APOAPSIS":"541.167","EPOCH":"2022-11-30T14:54:14.558976","REV_AT_EPOCH":"2094","PERIOD":"95.438","TIME_SYSTEM":"UTC","RA_OF_ASC_NODE":"128.9832","CENTER_NAME":"EARTH","MEAN_ANOMALY":"299.4957","OBJECT_NAME":"STARLINK-4087","OBJECT_ID":"2022-083AA","COUNTRY_CODE":"US","INCLINATION":"53.2176"},{"LAUNCH_DATE":"2022-07-17","DECAY_DATE":null,"SITE":"AFETR","ECCENTRICITY":"0.00017560","TLE_LINE2":"2 53157  53.2189 128.1243 0001756  60.6198 299.4969 15.08831930 20975","ARG_OF_PERICENTER":"60.6198","MEAN_MOTION_DOT":"-0.00000075","BSTAR":"0.00001337600000","EPHEMERIS_TYPE":"0","MEAN_ELEMENT_THEORY":"SGP4","FILE":"3676429","RCS_SIZE":"LARGE","TLE_LINE1":"1 53157U 22083AB  22334.81141220 -.00000075  00000-0  13376-4 0  9996","GP_ID":"219218569","MEAN_MOTION":"15.08831930","PERIAPSIS":"538.555","REF_FRAME":"TEME","OBJECT_TYPE":"PAYLOAD","ELEMENT_SET_NO":"999","NORAD_CAT_ID":"53157","CLASSIFICATION_TYPE":"U","EPOCH":"2022-11-30T19:28:26.014080","APOAPSIS":"540.985","MEAN_MOTION_DDOT":"0.0000000000000","SEMIMAJOR_AXIS":"6917.905","MEAN_ANOMALY":"299.4969","REV_AT_EPOCH":"2097","PERIOD":"95.438","CENTER_NAME":"EARTH","RA_OF_ASC_NODE":"128.1243","TIME_SYSTEM":"UTC","COUNTRY_CODE":"US","OBJECT_ID":"2022-083AB","INCLINATION":"53.2189","OBJECT_NAME":"STARLINK-4093"},{"APOAPSIS":"540.847","MEAN_MOTION_DDOT":"0.0000000000000","SEMIMAJOR_AXIS":"6917.869","EPOCH":"2022-11-30T19:44:18.589632","CLASSIFICATION_TYPE":"U","REF_FRAME":"TEME","OBJECT_TYPE":"PAYLOAD","ELEMENT_SET_NO":"999","NORAD_CAT_ID":"53158","OBJECT_NAME":"STARLINK-4054","OBJECT_ID":"2022-083AC","COUNTRY_CODE":"US","INCLINATION":"53.2172","REV_AT_EPOCH":"2097","PERIOD":"95.437","CENTER_NAME":"EARTH","RA_OF_ASC_NODE":"128.0791","TIME_SYSTEM":"UTC","MEAN_ANOMALY":"291.9794","EPHEMERIS_TYPE":"0","MEAN_ELEMENT_THEORY":"SGP4","TLE_LINE2":"2 53158  53.2172 128.0791 0001609  68.1369 291.9794 15.08843601 20976","MEAN_MOTION_DOT":"0.00002213","ARG_OF_PERICENTER":"68.1369","BSTAR":"0.00015709000000","SITE":"AFETR","ECCENTRICITY":"0.00016090","LAUNCH_DATE":"2022-07-17","DECAY_DATE":null,"PERIAPSIS":"538.621","MEAN_MOTION":"15.08843601","GP_ID":"219218731","TLE_LINE1":"1 53158U 22083AC  22334.82243738  .00002213  00000-0  15709-3 0  9991","RCS_SIZE":"LARGE","FILE":"3676429"},{"EPOCH":"2022-11-30T17:42:27.697248","APOAPSIS":"541.998","SEMIMAJOR_AXIS":"6917.868","MEAN_MOTION_DDOT":"0.0000000000000","REF_FRAME":"TEME","OBJECT_TYPE":"PAYLOAD","ELEMENT_SET_NO":"999","NORAD_CAT_ID":"53159","CLASSIFICATION_TYPE":"U","OBJECT_ID":"2022-083AD","COUNTRY_CODE":"US","INCLINATION":"53.2174","OBJECT_NAME":"STARLINK-4111","MEAN_ANOMALY":"310.3298","PERIOD":"95.437","REV_AT_EPOCH":"2096","RA_OF_ASC_NODE":"128.4545","TIME_SYSTEM":"UTC","CENTER_NAME":"EARTH","TLE_LINE2":"2 53159  53.2174 128.4545 0003275  49.7981 310.3298 15.08844213 20960","MEAN_MOTION_DOT":"0.00001926","ARG_OF_PERICENTER":"49.7981","BSTAR":"0.00013910000000","EPHEMERIS_TYPE":"0","MEAN_ELEMENT_THEORY":"SGP4","LAUNCH_DATE":"2022-07-17","DECAY_DATE":null,"SITE":"AFETR","ECCENTRICITY":"0.00032750","MEAN_MOTION":"15.08844213","PERIAPSIS":"537.467","FILE":"3676429","RCS_SIZE":"LARGE","TLE_LINE1":"1 53159U 22083AD  22334.73782057  .00001926  00000-0  13910-3 0  9996","GP_ID":"219217864"},{"ECCENTRICITY":"0.00016710","SITE":"AFETR","DECAY_DATE":null,"LAUNCH_DATE":"2022-07-17","MEAN_ELEMENT_THEORY":"SGP4","EPHEMERIS_TYPE":"0","MEAN_MOTION_DOT":"0.00000576","BSTAR":"0.00005425600000","ARG_OF_PERICENTER":"68.6437","TLE_LINE2":"2 53160  53.2164 128.1102 0001671  68.6437 291.4733 15.08845138 20972","GP_ID":"219218396","TLE_LINE1":"1 53160U 22083AE  22334.81507971  .00000576  00000-0  54256-4 0  9996","FILE":"3676429","RCS_SIZE":"LARGE","PERIAPSIS":"538.574","MEAN_MOTION":"15.08845138","CLASSIFICATION_TYPE":"U","NORAD_CAT_ID":"53160","ELEMENT_SET_NO":"999","REF_FRAME":"TEME","OBJECT_TYPE":"PAYLOAD","MEAN_MOTION_DDOT":"0.0000000000000","SEMIMAJOR_AXIS":"6917.865","APOAPSIS":"540.886","EPOCH":"2022-11-30T19:33:42.886944","TIME_SYSTEM":"UTC","RA_OF_ASC_NODE":"128.1102","CENTER_NAME":"EARTH","REV_AT_EPOCH":"2097","PERIOD":"95.437","MEAN_ANOMALY":"291.4733","OBJECT_NAME":"STARLINK-4096","INCLINATION":"53.2164","COUNTRY_CODE":"US","OBJECT_ID":"2022-083AE"}];
